CUTE-1 (CO-55)          
1 27844U 03031E   24316.28361349  .00001595  00000+0  71828-3 0  9992
2 27844  98.6789 321.3132 0010844  79.1906 281.0493 14.23633074108715
CUBESAT XI-IV (CO-57)   
1 27848U 03031J   24316.48881208  .00001322  00000+0  60586-3 0  9996
2 27848  98.6820 321.6715 0010754  93.5160 266.7248 14.23022234108489
CUBESAT XI-V            
1 28895U 05043F   24316.36069865  .00007142  00000+0  12156-2 0  9993
2 28895  98.2209  92.7259 0014321 251.7836 108.1810 14.69312636 16053
CUTE-1.7+APD II (CO-65) 
1 32785U 08021C   24316.55243362  .00013691  00000+0  10963-2 0  9992
2 32785  97.7722 281.1169 0010312 193.8630 166.2312 15.00238283897542
AAUSAT-II               
1 32788U 08021F   24315.86337238  .00079641  00000+0  25247-2 0  9992
2 32788  97.6047 297.9053 0006816  58.7493 301.4415 15.32378230900758
CANX-2                  
1 32790U 08021H   24316.38442006  .00013672  00000+0  11542-2 0  9998
2 32790  97.7867 279.5339 0010682 190.2856 169.8150 14.98197049897380
SEEDS II (CO-66)        
1 32791U 08021J   24316.20498798  .00032619  00000+0  20068-2 0  9994
2 32791  97.7077 287.2319 0005839 140.7441 219.4212 15.09936502898656
SWISSCUBE               
1 35932U 09051B   24316.62581922  .00004669  00000+0  97853-3 0  9997
2 35932  98.4493 202.8074 0005964 215.3126 144.7679 14.60186586804104
BEESAT-1                
1 35933U 09051C   24316.32110596  .00004492  00000+0  95068-3 0  9990
2 35933  98.4420 203.2010 0004201 229.9766 130.1065 14.59765744804086
ITUPSAT1                
1 35935U 09051E   24316.16988382  .00004515  00000+0  97879-3 0  9998
2 35935  98.4519 202.7456 0006372 241.8410 118.2145 14.58642741803686
TISAT 1                 
1 36799U 10035E   24316.62691196  .00024799  00000+0  16005-2 0  9993
2 36799  98.0702 212.8118 0006431  89.0245 271.1719 15.08244226779439
AEROCUBE 4.5A           
1 38767U 12048K   24316.12241200  .00046985  00000+0  19065-2 0  9998
2 38767  64.6537 199.2362 0109702 330.5990  28.8990 15.18905946282707
AEROCUBE 4.5B           
1 38768U 12048L   24316.82804394  .00132204  00000+0  22770-2 0  9992
2 38768  64.6451 107.4908 0073045 316.9072  42.6361 15.47409256284061
STRAND-1                
1 39090U 13009E   24316.48258146  .00001628  00000+0  56961-3 0  9994
2 39090  98.3784 140.7626 0008932 165.9462 194.1975 14.36448562613383
BRITE-AUSTRIA           
1 39091U 13009F   24316.49133091  .00001059  00000+0  37850-3 0  9991
2 39091  98.3834 140.0459 0010316 173.9681 186.1632 14.36061016613407
NEE-01 PEGASO           
1 39151U 13018B   24316.80372096  .00009785  00000+0  10659-2 0  9994
2 39151  98.0507  75.7097 0013391 278.4334  81.5364 14.88144056623912
ESTCUBE 1               
1 39161U 13021C   24316.81507609  .00006521  00000+0  90846-3 0  9992
2 39161  97.8121  18.7905 0009955 108.9040 251.3251 14.78041978618924
POPACS 1                
1 39268U 13055D   24316.48394245  .00081934  65016-6  11536-2 0  9994
2 39268  80.9822 340.0897 0339250 332.9992  25.3920 15.10784188582626
POPACS 2                
1 39269U 13055E   24316.60516740  .00037235  00000+0  81354-3 0  9991
2 39269  80.9994  78.5135 0521215 230.9724 124.3988 14.64240943577115
POPACS 3                
1 39270U 13055F   24316.23282137  .00018555  00000+0  48995-3 0  9990
2 39270  81.0043 134.7634 0610014  28.2586 335.0309 14.41577012574810
ZACUBE-1 (TSHEPISOSAT)  
1 39417U 13066B   24316.59687341  .00015347  00000+0  14605-2 0  9996
2 39417  97.7525 269.6889 0049020  34.1564 326.2792 14.92591695593545
WNISAT-1                
1 39423U 13066H   24316.26006201  .00004032  00000+0  76652-3 0  9997
2 39423  97.6656 138.7374 0166576 267.2484  90.9640 14.56105762581839
TRITON-1                
1 39427U 13066M   24316.79258610  .00011716  00000+0  15590-2 0  9992
2 39427  97.8380 230.1787 0097863 327.2130  32.3031 14.76522332588166
DELFI-N3XT              
1 39428U 13066N   24316.71888046  .00024851  00000+0  28448-2 0  9997
2 39428  97.8345 231.5107 0092713 330.5694  29.0317 14.82840745588090
GOMX-1                  
1 39430U 13066Q   24316.72712641  .00006414  00000+0  10282-2 0  9990
2 39430  97.7074 182.1441 0137022 142.5561 218.5287 14.65877177584648
CUBEBUG-2 (LO-74)       
1 39440U 13066AA  24316.57891492  .00011304  00000+0  12353-2 0  9991
2 39440  97.8263 257.4191 0067214 149.8066 210.7050 14.86361943590206
NEE-02 KRYSAOR          
1 39441U 13066AB  24316.79773875  .00006774  00000+0  81951-3 0  9996
2 39441  97.8349 252.8453 0071689 173.8701 186.3406 14.82159722590946
FUNCUBE-1 (AO-73)       
1 39444U 13066AE  24316.83310372  .00021962  00000+0  18911-2 0  9994
2 39444  97.7377 273.5181 0045002  12.7536 347.4813 14.96568817592740
UWE-3                   
1 39446U 13066AG  24315.84004961  .00013138  00000+0  13505-2 0  9990
2 39446  97.7986 262.8310 0059315  96.2287 264.5692 14.89146395591091
BRITE-CA1 (TORONTO)     
1 40020U 14033L   24316.60456794  .00003608  00000+0  57341-3 0  9993
2 40020  97.8976  88.8198 0081265 342.0975  17.7372 14.70490230556630
DUCHIFAT-1              
1 40021U 14033M   24316.21726012  .00040021  00000+0  21102-2 0  9999
2 40021  98.1003 308.4606 0009801 336.3459  23.7319 15.15409887566323
NANOSATC-BR1            
1 40024U 14033Q   24316.19023987  .00032657  00000+0  20306-2 0  9991
2 40024  98.0792 295.1098 0007795  51.7981 308.3947 15.09539444565374
QB50P1                  
1 40025U 14033R   24316.34693064  .00021101  00000+0  15117-2 0  9994
2 40025  98.0597 282.5287 0013789  52.1674 308.0797 15.04336609564969
QB50P2                  
1 40032U 14033Y   24316.32110426  .00019851  00000+0  14841-2 0  9998
2 40032  98.0162 273.1388 0009598   3.8438 356.2858 15.02781263564733
PERSEUS-M2              
1 40037U 14033AD  24316.79114061  .00005874  00000+0  58356-3 0  9993
2 40037  97.9355 248.2825 0014503  70.4237 289.8546 14.92023378564322
PERSEUS-M1              
1 40039U 14033AF  24316.76769771  .00006925  00000+0  68906-3 0  9996
2 40039  97.9132 243.8789 0014424  70.0476 290.2294 14.91894939564188
POLYITAN-1              
1 40042U 14033AJ  24316.20219015  .00036503  00000+0  22930-2 0  9991
2 40042  98.0875 287.2637 0012224  11.9288 348.2226 15.09101986564950
TIGRISAT                
1 40043U 14033AK  24316.28422991  .00008831  00000+0  11225-2 0  9997
2 40043  97.7099 112.9781 0053371 182.8686 177.2229 14.80836009559212
AEROCUBE 6A             
1 40045U 14033AM  24316.74786763  .00018347  00000+0  19851-2 0  9996
2 40045  97.6761 124.8469 0047085 155.0341 205.3167 14.87491732559939
AEROCUBE 6B             
1 40046U 14033AN  24315.21400673  .00026176  00000+0  27654-2 0  9990
2 40046  97.6744 122.2108 0045770 154.6711 205.6764 14.88421574559910
CANX-4                  
1 40055U 14034C   24316.52195784  .00004444  00000+0  60620-3 0  9995
2 40055  98.3809 157.4382 0014475  80.5648 279.7198 14.79126002558356
CANX-5                  
1 40056U 14034D   24316.79672185  .00004324  00000+0  58987-3 0  9990
2 40056  98.3810 157.7353 0014477  79.9233 280.3610 14.79139491558391
UKUBE-1                 
1 40074U 14037F   24316.56663331  .00022006  00000+0  18269-2 0  9996
2 40074  98.3505 256.0644 0002397 331.6322  28.4768 14.98784205560818
BRITE-PL2 (HEWELIUSZ)   
1 40119U 14049B   24316.72874764  .00006681  00000+0  68626-3 0  9995
2 40119  97.8868  55.9177 0014313 236.1614 123.8242 14.90633095554637
AEROCUBE 5C             
1 40965U 15058B   24316.59539673  .00011300  00000+0  96025-3 0  9995
2 40965  64.7688 268.3413 0188821 264.0703  93.8859 14.85397938278918
AEROCUBE 7              
1 40966U 15058C   24316.26451455  .00015082  00000+0  12166-2 0  9995
2 40966  64.7657 261.5876 0182615 263.7747  94.2534 14.87871855278969
FOX-1A (AO-85)          
1 40967U 15058D   24316.17559468  .00014158  00000+0  12252-2 0  9998
2 40967  64.7765 284.0469 0186880 259.9380  98.0599 14.84839554 26798
SINOD-D 1               
1 40968U 15058E   24316.59380096  .00014814  00000+0  12163-2 0  9994
2 40968  64.7765 273.9164 0179696 258.7915  99.2951 14.87596865 29714
SNAP-3 ALICE            
1 40970U 15058G   24316.19369825  .00041674  00000+0  23233-2 0  9994
2 40970  64.7681 222.1690 0139467 256.7932 101.7597 15.05369584 27836
LMRST-SAT               
1 40971U 15058H   24316.29201906  .00012474  00000+0  10791-2 0  9992
2 40971  64.7763 279.2522 0188286 261.3072  96.6670 14.84751499 26812
SNAP-3 EDDIE            
1 40972U 15058J   24316.69655387  .00043114  00000+0  23682-2 0  9991
2 40972  64.7650 213.6547 0139448 257.5507 100.9979 15.05864985 30010
PROPCUBE 3              
1 40973U 15058K   24316.59247021  .00013405  00000+0  11034-2 0  9991
2 40973  64.7698 264.6517 0184293 262.5886  95.4251 14.87001160 27924
BISONSAT                
1 40974U 15058L   24316.33736534  .00028214  00000+0  18690-2 0  9995
2 40974  64.7659 233.7178 0158809 260.2837  98.0311 14.97403329 27747
SNAP-3 JIMI             
1 40975U 15058M   24316.25594656  .00019917  00000+0  14983-2 0  9995
2 40975  64.7677 251.1844 0173560 261.6697  96.4706 14.91328791 26924
PROPCUBE 1 (FLORA)      
1 40976U 15058N   24316.53939576  .00011712  00000+0  10540-2 0  9991
2 40976  64.7754 294.7544 0187218 262.5673  95.4129 14.83477533 29639
SINOD-D 3               
1 40977U 15058P   24316.63971181  .00014816  00000+0  12624-2 0  9994
2 40977  64.7736 286.1364 0179943 261.7721  96.2948 14.86221831 27914
HORYU-4                 
1 41340U 16012D   24316.67322326  .00035137  00000+0  14000-2 0  9994
2 41340  30.9990  89.7885 0009688  43.8266 316.3144 15.23998339480601
RAVAN                   
1 41849U 16067B   24316.50789995  .00033704  00000+0  15489-2 0  9999
2 41849  98.0610 143.4749 0010668 246.9842 113.0266 15.20247730438319
CELTEE 1                
1 41850U 16067C   24316.26434533  .00015889  00000+0  97558-3 0  9991
2 41850  98.1070 133.7804 0001915  67.2860 292.8570 15.10190934437590
